{"type": "FeatureCollection", "features": [ {"type": "Feature", "properties": {"norad_id": 66593, "name": "STARLINK-36031", "group": "last-30-days", "lat": 37.348688001348314, "lon": 4.734036665014, "alt_km": 340.35095302083755, "timestamp": "2025-12-04T19:33:58.449537+00:00", "meta": {"OBJECT_NAME": "STARLINK-36031", "OBJECT_ID": "2025-270F", "EPOCH": "2025-12-04T03:51:10.174752", "MEAN_MOTION": 15.75313834, "ECCENTRICITY": 0.00020553, "INCLINATION": 42.9978, "RA_OF_ASC_NODE": 243.6952, "ARG_OF_PERICENTER": 267.9518, "MEAN_ANOMALY": 92.1116, "EPHEMERIS_TYPE": 0, "CLASSIFICATION_TYPE": "U", "NORAD_CAT_ID": 66593, "ELEMENT_SET_NO": 999, "REV_AT_EPOCH": 300, "BSTAR": -0.0022282579, "MEAN_MOTION_DOT": -0.00333622, "MEAN_MOTION_DDOT": 0}, "tle": {"line1": "1 66593U 25270F   25338.16053443 -.00333622  00000+0 -22283-2 0  9991", "line2": "2 66593  42.9978 243.6952 0002055 267.9518  92.1116 15.75313834  3004"}}, "geometry": {"type": "Point", "coordinates": [4.734036665014, 37.348688001348314]}}, {"type": "Feature", "properties": {"norad_id": 66594, "name": "STARLINK-36032", "group": "last-30-days", "lat": 25.851692291102655, "lon": 28.329770692654172, "alt_km": 340.241641654904, "timestamp": "2025-12-04T19:33:58.449546+00:00", "meta": {"OBJECT_NAME": "STARLINK-36032", "OBJECT_ID": "2025-270G", "EPOCH": "2025-12-04T03:46:47.463456", "MEAN_MOTION": 15.77380004, "ECCENTRICITY": 0.00146576, "INCLINATION": 42.9975, "RA_OF_ASC_NODE": 243.6707, "ARG_OF_PERICENTER": 280.4782, "MEAN_ANOMALY": 79.4436, "EPHEMERIS_TYPE": 0, "CLASSIFICATION_TYPE": "U", "NORAD_CAT_ID": 66594, "ELEMENT_SET_NO": 999, "REV_AT_EPOCH": 281, "BSTAR": 0.0022053405, "MEAN_MOTION_DOT": 0.00395318, "MEAN_MOTION_DDOT": 0}, "tle": {"line1": "1 66594U 25270G   25338.15749379  .00395318  00000+0  22053-2 0  9994", "line2": "2 66594  42.9975 243.6707 0014657 280.4782  79.4436 15.77380004  2810"}}, "geometry": {"type": "Point", "coordinates": [28.329770692654172, 25.851692291102655]}}, {"type": "Feature", "properties": {"norad_id": 66595, "name": "STARLINK-35711", "group": "last-30-days", "lat": 35.64322764817235, "lon": 9.397032153987764, "alt_km": 339.44948503591695, "timestamp": "2025-12-04T19:33:58.449555+00:00", "meta": {"OBJECT_NAME": "STARLINK-35711", "OBJECT_ID": "2025-270H", "EPOCH": "2025-12-04T05:21:30.685248", "MEAN_MOTION": 15.75230098, "ECCENTRICITY": 0.00020324, "INCLINATION": 42.9987, "RA_OF_ASC_NODE": 243.3051, "ARG_OF_PERICENTER": 265.2073, "MEAN_ANOMALY": 94.8564, "EPHEMERIS_TYPE": 0, "CLASSIFICATION_TYPE": "U", "NORAD_CAT_ID": 66595, "ELEMENT_SET_NO": 999, "REV_AT_EPOCH": 312, "BSTAR": -2.0104523e-05, "MEAN_MOTION_DOT": -3.592e-05, "MEAN_MOTION_DDOT": 0}, "tle": {"line1": "1 66595U 25270H   25338.22327182 -.00003592  00000+0 -20105-4 0  9997", "line2": "2 66595  42.9987 243.3051 0002032 265.2073  94.8564 15.75230098  3124"}}, "geometry": {"type": "Point", "coordinates": [9.397032153987764, 35.64322764817235]}}, {"type": "Feature", "properties": {"norad_id": 66596, "name": "STARLINK-35811", "group": "last-30-days", "lat": 34.7821330943164, "lon": 11.51354347849106, "alt_km": 339.4092907590484, "timestamp": "2025-12-04T19:33:58.449563+00:00", "meta": {"OBJECT_NAME": "STARLINK-35811", "OBJECT_ID": "2025-270J", "EPOCH": "2025-12-04T05:21:01.628928", "MEAN_MOTION": 15.75216339, "ECCENTRICITY": 0.00024176, "INCLINATION": 42.9986, "RA_OF_ASC_NODE": 243.3027, "ARG_OF_PERICENTER": 252.3696, "MEAN_ANOMALY": 107.6909, "EPHEMERIS_TYPE": 0, "CLASSIFICATION_TYPE": "U", "NORAD_CAT_ID": 66596, "ELEMENT_SET_NO": 999, "REV_AT_EPOCH": 312, "BSTAR": 0.00030397463, "MEAN_MOTION_DOT": 0.00046843, "MEAN_MOTION_DDOT": 0}, "tle": {"line1": "1 66596U 25270J   25338.22293552  .00046843  00000+0  30397-3 0  9998", "line2": "2 66596  42.9986 243.3027 0002417 252.3696 107.6909 15.75216339  3120"}}, "geometry": {"type": "Point", "coordinates": [11.51354347849106, 34.7821330943164]}}, {"type": "Feature", "properties": {"norad_id": 66597, "name": "STARLINK-35820", "group": "last-30-days", "lat": 23.252435612364824, "lon": 32.19363798428339, "alt_km": 352.8878238949137, "timestamp": "2025-12-04T19:33:58.449572+00:00", "meta": {"OBJECT_NAME": "STARLINK-35820", "OBJECT_ID": "2025-270K", "EPOCH": "2025-12-04T00:43:40.956960", "MEAN_MOTION": 15.80114671, "ECCENTRICITY": 0.00202858, "INCLINATION": 42.9984, "RA_OF_ASC_NODE": 244.4384, "ARG_OF_PERICENTER": 309.2244, "MEAN_ANOMALY": 50.6826, "EPHEMERIS_TYPE": 0, "CLASSIFICATION_TYPE": "U", "NORAD_CAT_ID": 66597, "ELEMENT_SET_NO": 999, "REV_AT_EPOCH": 309, "BSTAR": -0.014154464, "MEAN_MOTION_DOT": -0.02411074, "MEAN_MOTION_DDOT": 0}, "tle": {"line1": "1 66597U 25270K   25338.03033515 -.02411074  00000+0 -14154-1 0  9996", "line2": "2 66597  42.9984 244.4384 0020285 309.2244  50.6826 15.80114671  3094"}}, "geometry": {"type": "Point", "coordinates": [32.19363798428339, 23.252435612364824]}}, {"type": "Feature", "properties": {"norad_id": 66598, "name": "STARLINK-35981", "group": "last-30-days", "lat": 32.190889355208704, "lon": 17.19469392953927, "alt_km": 341.83876378218065, "timestamp": "2025-12-04T19:33:58.449581+00:00", "meta": {"OBJECT_NAME": "STARLINK-35981", "OBJECT_ID": "2025-270L", "EPOCH": "2025-12-04T05:19:33.192480", "MEAN_MOTION": 15.75308926, "ECCENTRICITY": 0.00028269, "INCLINATION": 42.999, "RA_OF_ASC_NODE": 243.2951, "ARG_OF_PERICENTER": 278.7151, "MEAN_ANOMALY": 81.3398, "EPHEMERIS_TYPE": 0, "CLASSIFICATION_TYPE": "U", "NORAD_CAT_ID": 66598, "ELEMENT_SET_NO": 999, "REV_AT_EPOCH": 285, "BSTAR": -0.0027988896, "MEAN_MOTION_DOT": -0.00414993, "MEAN_MOTION_DDOT": 0}, "tle": {"line1": "1 66598U 25270L   25338.22191195 -.00414993  00000+0 -27989-2 0  9999", "line2": "2 66598  42.9990 243.2951 0002826 278.7151  81.3398 15.75308926  2857"}}, "geometry": {"type": "Point", "coordinates": [17.19469392953927, 32.190889355208704]}}, {"type": "Feature", "properties": {"norad_id": 66599, "name": "STARLINK-35930", "group": "last-30-days", "lat": 32.47266404336143, "lon": 16.616091810613796, "alt_km": 342.336225361154, "timestamp": "2025-12-04T19:33:58.449594+00:00", "meta": {"OBJECT_NAME": "STARLINK-35930", "OBJECT_ID": "2025-270M", "EPOCH": "2025-12-04T00:45:37.693728", "MEAN_MOTION": 15.75348253, "ECCENTRICITY": 0.00019861, "INCLINATION": 42.9984, "RA_OF_ASC_NODE": 244.4479, "ARG_OF_PERICENTER": 267.8069, "MEAN_ANOMALY": 92.2573, "EPHEMERIS_TYPE": 0, "CLASSIFICATION_TYPE": "U", "NORAD_CAT_ID": 66599, "ELEMENT_SET_NO": 999, "REV_AT_EPOCH": 298, "BSTAR": -0.0039524111, "MEAN_MOTION_DOT": -0.00575796, "MEAN_MOTION_DDOT": 0}, "tle": {"line1": "1 66599U 25270M   25338.03168627 -.00575796  00000+0 -39524-2 0  9990", "line2": "2 66599  42.9984 244.4479 0001986 267.8069  92.2573 15.75348253  2989"}}, "geometry": {"type": "Point", "coordinates": [16.616091810613796, 32.47266404336143]}}, {"type": "Feature", "properties": {"norad_id": 66600, "name": "STARLINK-35980", "group": "last-30-days", "lat": 21.920889888023606, "lon": 34.06215219361883, "alt_km": 339.3434453858026, "timestamp": "2025-12-04T19:33:58.449603+00:00", "meta": {"OBJECT_NAME": "STARLINK-35980", "OBJECT_ID": "2025-270N", "EPOCH": "2025-12-04T03:46:22.938816", "MEAN_MOTION": 15.79349544, "ECCENTRICITY": 0.00188251, "INCLINATION": 43.0002, "RA_OF_ASC_NODE": 243.6684, "ARG_OF_PERICENTER": 318.1688, "MEAN_ANOMALY": 41.7743, "EPHEMERIS_TYPE": 0, "CLASSIFICATION_TYPE": "U", "NORAD_CAT_ID": 66600, "ELEMENT_SET_NO": 999, "REV_AT_EPOCH": 290, "BSTAR": 0.0025460562, "MEAN_MOTION_DOT": 0.00507436, "MEAN_MOTION_DDOT": 0}, "tle": {"line1": "1 66600U 25270N   25338.15720994  .00507436  00000+0  25461-2 0  9996", "line2": "2 66600  43.0002 243.6684 0018825 318.1688  41.7743 15.79349544  2909"}}, "geometry": {"type": "Point", "coordinates": [34.06215219361883, 21.920889888023606]}}, {"type": "Feature", "properties": {"norad_id": 66601, "name": "STARLINK-35978", "group": "last-30-days", "lat": 30.212034625603273, "lon": 21.005093456293665, "alt_km": 340.0873058978086, "timestamp": "2025-12-04T19:33:58.449612+00:00", "meta": {"OBJECT_NAME": "STARLINK-35978", "OBJECT_ID": "2025-270P", "EPOCH": "2025-12-04T02:15:56.284416", "MEAN_MOTION": 15.75298164, "ECCENTRICITY": 0.00071106, "INCLINATION": 42.9977, "RA_OF_ASC_NODE": 244.0577, "ARG_OF_PERICENTER": 214.9985, "MEAN_ANOMALY": 145.0417, "EPHEMERIS_TYPE": 0, "CLASSIFICATION_TYPE": "U", "NORAD_CAT_ID": 66601, "ELEMENT_SET_NO": 999, "REV_AT_EPOCH": 283, "BSTAR": -0.0021837609, "MEAN_MOTION_DOT": -0.00327668, "MEAN_MOTION_DDOT": 0}, "tle": {"line1": "1 66601U 25270P   25338.09440144 -.00327668  00000+0 -21838-2 0  9999", "line2": "2 66601  42.9977 244.0577 0007110 214.9985 145.0417 15.75298164  2838"}}, "geometry": {"type": "Point", "coordinates": [21.005093456293665, 30.212034625603273]}}, {"type": "Feature", "properties": {"norad_id": 66602, "name": "STARLINK-36050", "group": "last-30-days", "lat": -0.6032411563812048, "lon": 60.222703252187436, "alt_km": 275.3938180450623, "timestamp": "2025-12-04T19:33:58.449621+00:00", "meta": {"OBJECT_NAME": "STARLINK-36050", "OBJECT_ID": "2025-270Q", "EPOCH": "2025-12-03T23:11:57.245856", "MEAN_MOTION": 15.81066635, "ECCENTRICITY": 0.00264193, "INCLINATION": 42.9973, "RA_OF_ASC_NODE": 244.8203, "ARG_OF_PERICENTER": 271.6989, "MEAN_ANOMALY": 88.0856, "EPHEMERIS_TYPE": 0, "CLASSIFICATION_TYPE": "U", "NORAD_CAT_ID": 66602, "ELEMENT_SET_NO": 999, "REV_AT_EPOCH": 287, "BSTAR": 0.03628424, "MEAN_MOTION_DOT": 0.09497794, "MEAN_MOTION_DDOT": 0}, "tle": {"line1": "1 66602U 25270Q   25337.96663479  .09497794  00000+0  36284-1 0  9998", "line2": "2 66602  42.9973 244.8203 0026419 271.6989  88.0856 15.81066635  2876"}}, "geometry": {"type": "Point", "coordinates": [60.222703252187436, -0.6032411563812048]}}]}